[{"OBJECT_NAME":"TYVAK-0130","OBJECT_ID":"2021-041BF","EPOCH":"2026-03-09T11:37:42.710304","MEAN_MOTION":15.26049141,"ECCENTRICITY":0.0008953,"INCLINATION":52.9967,"RA_OF_ASC_NODE":128.603,"ARG_OF_PERICENTER":215.1647,"MEAN_ANOMALY":144.876,"EPHEMERIS_TYPE":0,"CLASSIFICATION_TYPE":"U","NORAD_CAT_ID":48606,"ELEMENT_SET_NO":999,"REV_AT_EPOCH":26515,"BSTAR":0.0003519806,"MEAN_MOTION_DOT":8.857e-5,"MEAN_MOTION_DDOT":0},{"OBJECT_NAME":"STARLINK-30256","OBJECT_ID":"2023-115B","EPOCH":"2026-03-09T04:55:32.299680","MEAN_MOTION":15.26726159,"ECCENTRICITY":0.00017429,"INCLINATION":43.0014,"RA_OF_ASC_NODE":4.6316,"ARG_OF_PERICENTER":264.2228,"MEAN_ANOMALY":95.8424,"EPHEMERIS_TYPE":0,"CLASSIFICATION_TYPE":"U","NORAD_CAT_ID":57522,"ELEMENT_SET_NO":999,"REV_AT_EPOCH":14227,"BSTAR":-0.00019068612,"MEAN_MOTION_DOT":-5.369e-5,"MEAN_MOTION_DDOT":0}]
